COSMOS 2251 DEB         
1 34302U 93036MY  17345.90193830  .00000612  00000-0  24115-3 0  9991
2 34302  74.1862   2.8318 0092003 317.6621 110.2575 14.28919592458978
